{
    "links": {
        "self": "http://www.neowsapp.com/rest/v1/neo/54053938?api_key=iIulBulltgU6a56xZRHN4H3l9WmuAYTsLGpBGhQ2"
    },
    "id": "54053938",
    "neo_reference_id": "54053938",
    "name": "(2020 RC4)",
    "designation": "2020 RC4",
    "nasa_jpl_url": "http://ssd.jpl.nasa.gov/sbdb.cgi?sstr=54053938",
    "absolute_magnitude_h": 26.21,
    "estimated_diameter": {
        "kilometers": {
            "estimated_diameter_min": 0.0152249185,
            "estimated_diameter_max": 0.0340439527
        },
        "meters": {
            "estimated_diameter_min": 15.2249185036,
            "estimated_diameter_max": 34.043952726
        },
        "miles": {
            "estimated_diameter_min": 0.0094603228,
            "estimated_diameter_max": 0.0211539249
        },
        "feet": {
            "estimated_diameter_min": 49.9505216234,
            "estimated_diameter_max": 111.6927618614
        }
    },
    "is_potentially_hazardous_asteroid": false,
    "close_approach_data": [
        {
            "close_approach_date": "2020-08-31",
            "close_approach_date_full": "2020-Aug-31 07:10",
            "epoch_date_close_approach": 1598857800000,
            "relative_velocity": {
                "kilometers_per_second": "9.2365125427",
                "kilometers_per_hour": "33251.4451538211",
                "miles_per_hour": "20661.1549068284"
            },
            "miss_distance": {
                "astronomical": "0.0520997353",
                "lunar": "20.2667970317",
                "kilometers": "7794009.428443811",
                "miles": "4842972.8871981518"
            },
            "orbiting_body": "Earth"
        },
        {
            "close_approach_date": "2149-09-25",
            "close_approach_date_full": "2149-Sep-25 13:52",
            "epoch_date_close_approach": 5671864320000,
            "relative_velocity": {
                "kilometers_per_second": "15.9855258412",
                "kilometers_per_hour": "57547.8930284316",
                "miles_per_hour": "35758.0227542496"
            },
            "miss_distance": {
                "astronomical": "0.2718589156",
                "lunar": "105.7531181684",
                "kilometers": "40669514.714269772",
                "miles": "25270864.6178839736"
            },
            "orbiting_body": "Earth"
        }
    ],
    "orbital_data": {
        "orbit_id": "3",
        "orbit_determination_date": "2020-11-01 05:40:54",
        "first_observation_date": "2020-09-10",
        "last_observation_date": "2020-09-15",
        "data_arc_in_days": 5,
        "observations_used": 15,
        "orbit_uncertainty": "8",
        "minimum_orbit_intersection": ".0499343",
        "jupiter_tisserand_invariant": "3.397",
        "epoch_osculation": "2459105.5",
        "eccentricity": ".5469951319174997",
        "semi_major_axis": "2.259802273519607",
        "inclination": "7.395972887864332",
        "ascending_node_longitude": "351.3607752409335",
        "orbital_period": "1240.80658242894",
        "perihelion_distance": "1.023701430808284",
        "perihelion_argument": "324.8774911314014",
        "aphelion_distance": "3.49590311623093",
        "perihelion_time": "2459074.745760658664",
        "mean_anomaly": "8.922846090329323",
        "mean_motion": ".2901338573617833",
        "equinox": "J2000",
        "orbit_class": {
            "orbit_class_type": "AMO",
            "orbit_class_description": "Near-Earth asteroid orbits similar to that of 1221 Amor",
            "orbit_class_range": "1.017 AU < q (perihelion) < 1.3 AU"
        }
    },
    "is_sentry_object": false
}